[{"OBJECT_NAME":"ONEWEB-0060","OBJECT_ID":"2020-020AH","EPOCH":"2026-04-01T02:43:03.475488","MEAN_MOTION":13.11418283,"ECCENTRICITY":0.0002371,"INCLINATION":87.8909,"RA_OF_ASC_NODE":36.3864,"ARG_OF_PERICENTER":105.2493,"MEAN_ANOMALY":254.8897,"EPHEMERIS_TYPE":0,"CLASSIFICATION_TYPE":"U","NORAD_CAT_ID":45455,"ELEMENT_SET_NO":999,"REV_AT_EPOCH":29244,"BSTAR":-0.00095683,"MEAN_MOTION_DOT":-3.26e-06,"MEAN_MOTION_DDOT":0.0},{"OBJECT_NAME":"ONEWEB-0086","OBJECT_ID":"2020-020AJ","EPOCH":"2026-04-01T02:12:32.639616","MEAN_MOTION":13.11416583,"ECCENTRICITY":0.0002562,"INCLINATION":87.8911,"RA_OF_ASC_NODE":36.3801,"ARG_OF_PERICENTER":89.0581,"MEAN_ANOMALY":271.084,"EPHEMERIS_TYPE":0,"CLASSIFICATION_TYPE":"U","NORAD_CAT_ID":45456,"ELEMENT_SET_NO":999,"REV_AT_EPOCH":29250,"BSTAR":-0.00070175,"MEAN_MOTION_DOT":-2.36e-06,"MEAN_MOTION_DDOT":0.0},{"OBJECT_NAME":"ONEWEB-0088","OBJECT_ID":"2020-020AK","EPOCH":"2026-04-01T03:30:42.621696","MEAN_MOTION":13.11416355,"ECCENTRICITY":0.000152,"INCLINATION":87.8923,"RA_OF_ASC_NODE":36.3357,"ARG_OF_PERICENTER":78.7085,"MEAN_ANOMALY":281.4213,"EPHEMERIS_TYPE":0,"CLASSIFICATION_TYPE":"U","NORAD_CAT_ID":45457,"ELEMENT_SET_NO":999,"REV_AT_EPOCH":29244,"BSTAR":0.0012998999999999999,"MEAN_MOTION_DOT":4.73e-06,"MEAN_MOTION_DDOT":0.0},{"OBJECT_NAME":"ONEWEB-0102","OBJECT_ID":"2020-100A","EPOCH":"2026-04-01T05:03:20.641248","MEAN_MOTION":13.12445002,"ECCENTRICITY":0.0001994,"INCLINATION":87.9008,"RA_OF_ASC_NODE":5.9647,"ARG_OF_PERICENTER":81.0462,"MEAN_ANOMALY":279.0892,"EPHEMERIS_TYPE":0,"CLASSIFICATION_TYPE":"U","NORAD_CAT_ID":47258,"ELEMENT_SET_NO":999,"REV_AT_EPOCH":25463,"BSTAR":0.0012149,"MEAN_MOTION_DOT":4.5e-06,"MEAN_MOTION_DDOT":0.0},{"OBJECT_NAME":"ONEWEB-0109","OBJECT_ID":"2020-100B","EPOCH":"2026-04-01T03:25:46.648992","MEAN_MOTION":13.12443676,"ECCENTRICITY":0.0001879,"INCLINATION":87.9019,"RA_OF_ASC_NODE":5.9546,"ARG_OF_PERICENTER":75.2112,"MEAN_ANOMALY":284.9224,"EPHEMERIS_TYPE":0,"CLASSIFICATION_TYPE":"U","NORAD_CAT_ID":47259,"ELEMENT_SET_NO":999,"REV_AT_EPOCH":25445,"BSTAR":0.0008822200000000001,"MEAN_MOTION_DOT":3.3e-06,"MEAN_MOTION_DDOT":0.0},{"OBJECT_NAME":"ONEWEB-0110","OBJECT_ID":"2020-100C","EPOCH":"2026-04-01T04:04:47.677728","MEAN_MOTION":13.1244264,"ECCENTRICITY":0.0002015,"INCLINATION":87.902,"RA_OF_ASC_NODE":5.9334,"ARG_OF_PERICENTER":83.5882,"MEAN_ANOMALY":276.5476,"EPHEMERIS_TYPE":0,"CLASSIFICATION_TYPE":"U","NORAD_CAT_ID":47260,"ELEMENT_SET_NO":999,"REV_AT_EPOCH":25462,"BSTAR":-0.0011418,"MEAN_MOTION_DOT":-3.98e-06,"MEAN_MOTION_DDOT":0.0},{"OBJECT_NAME":"ONEWEB-0111","OBJECT_ID":"2020-100D","EPOCH":"2026-04-01T04:48:42.463008","MEAN_MOTION":13.12445744,"ECCENTRICITY":0.0001771,"INCLINATION":87.9019,"RA_OF_ASC_NODE":5.9462,"ARG_OF_PERICENTER":82.6227,"MEAN_ANOMALY":277.5103,"EPHEMERIS_TYPE":0,"CLASSIFICATION_TYPE":"U","NORAD_CAT_ID":47261,"ELEMENT_SET_NO":999,"REV_AT_EPOCH":25446,"BSTAR":0.0010294,"MEAN_MOTION_DOT":3.83e-06,"MEAN_MOTION_DDOT":0.0},{"OBJECT_NAME":"ONEWEB-0114","OBJECT_ID":"2020-100E","EPOCH":"2026-04-01T03:42:50.164992","MEAN_MOTION":13.12443724,"ECCENTRICITY":0.0001734,"INCLINATION":87.9022,"RA_OF_ASC_NODE":5.9511,"ARG_OF_PERICENTER":69.0106,"MEAN_ANOMALY":291.1208,"EPHEMERIS_TYPE":0,"CLASSIFICATION_TYPE":"U","NORAD_CAT_ID":47262,"ELEMENT_SET_NO":999,"REV_AT_EPOCH":25441,"BSTAR":-0.00017037,"MEAN_MOTION_DOT":-4.9e-07,"MEAN_MOTION_DDOT":0.0},{"OBJECT_NAME":"ONEWEB-0117","OBJECT_ID":"2020-100F","EPOCH":"2026-04-01T03:30:38.236896","MEAN_MOTION":13.12443862,"ECCENTRICITY":0.0001803,"INCLINATION":87.9019,"RA_OF_ASC_NODE":5.9465,"ARG_OF_PERICENTER":78.2622,"MEAN_ANOMALY":281.8708,"EPHEMERIS_TYPE":0,"CLASSIFICATION_TYPE":"U","NORAD_CAT_ID":47263,"ELEMENT_SET_NO":999,"REV_AT_EPOCH":25442,"BSTAR":0.0007208200000000001,"MEAN_MOTION_DOT":2.72e-06,"MEAN_MOTION_DDOT":0.0},{"OBJECT_NAME":"ONEWEB-0118","OBJECT_ID":"2020-100G","EPOCH":"2026-04-01T04:19:25.853376","MEAN_MOTION":13.12445253,"ECCENTRICITY":0.0001579,"INCLINATION":87.9018,"RA_OF_ASC_NODE":5.942,"ARG_OF_PERICENTER":69.7801,"MEAN_ANOMALY":290.3497,"EPHEMERIS_TYPE":0,"CLASSIFICATION_TYPE":"U","NORAD_CAT_ID":47264,"ELEMENT_SET_NO":999,"REV_AT_EPOCH":25462,"BSTAR":-0.00078082,"MEAN_MOTION_DOT":-2.68e-06,"MEAN_MOTION_DDOT":0.0},{"OBJECT_NAME":"ONEWEB-0119","OBJECT_ID":"2020-100H","EPOCH":"2026-04-01T04:56:01.937472","MEAN_MOTION":13.12445413,"ECCENTRICITY":0.0001788,"INCLINATION":87.9008,"RA_OF_ASC_NODE":5.9608,"ARG_OF_PERICENTER":77.6796,"MEAN_ANOMALY":282.4532,"EPHEMERIS_TYPE":0,"CLASSIFICATION_TYPE":"U","NORAD_CAT_ID":47265,"ELEMENT_SET_NO":999,"REV_AT_EPOCH":25460,"BSTAR":0.0012801000000000002,"MEAN_MOTION_DOT":4.73e-06,"MEAN_MOTION_DDOT":0.0},{"OBJECT_NAME":"ONEWEB-0120","OBJECT_ID":"2020-100J","EPOCH":"2026-04-01T03:40:35.830272","MEAN_MOTION":13.12443483,"ECCENTRICITY":0.0001798,"INCLINATION":87.9008,"RA_OF_ASC_NODE":5.972,"ARG_OF_PERICENTER":74.9286,"MEAN_ANOMALY":285.2041,"EPHEMERIS_TYPE":0,"CLASSIFICATION_TYPE":"U","NORAD_CAT_ID":47266,"ELEMENT_SET_NO":999,"REV_AT_EPOCH":25462,"BSTAR":3.4085e-05,"MEAN_MOTION_DOT":2.5e-07,"MEAN_MOTION_DDOT":0.0},{"OBJECT_NAME":"ONEWEB-0121","OBJECT_ID":"2020-100K","EPOCH":"2026-04-01T03:23:19.486464","MEAN_MOTION":13.1244382,"ECCENTRICITY":0.0001905,"INCLINATION":87.9018,"RA_OF_ASC_NODE":5.953,"ARG_OF_PERICENTER":83.8458,"MEAN_ANOMALY":276.2888,"EPHEMERIS_TYPE":0,"CLASSIFICATION_TYPE":"U","NORAD_CAT_ID":47267,"ELEMENT_SET_NO":999,"REV_AT_EPOCH":25453,"BSTAR":0.0010539,"MEAN_MOTION_DOT":3.92e-06,"MEAN_MOTION_DDOT":0.0},{"OBJECT_NAME":"ONEWEB-0122","OBJECT_ID":"2020-100L","EPOCH":"2026-04-01T05:04:34.680000","MEAN_MOTION":13.12443438,"ECCENTRICITY":0.0001948,"INCLINATION":87.9023,"RA_OF_ASC_NODE":5.9418,"ARG_OF_PERICENTER":76.7525,"MEAN_ANOMALY":283.382,"EPHEMERIS_TYPE":0,"CLASSIFICATION_TYPE":"U","NORAD_CAT_ID":47268,"ELEMENT_SET_NO":999,"REV_AT_EPOCH":25445,"BSTAR":0.0011986,"MEAN_MOTION_DOT":4.44e-06,"MEAN_MOTION_DDOT":0.0},{"OBJECT_NAME":"ONEWEB-0123","OBJECT_ID":"2020-100M","EPOCH":"2026-04-01T04:58:27.994080","MEAN_MOTION":13.12445214,"ECCENTRICITY":0.0001664,"INCLINATION":87.901,"RA_OF_ASC_NODE":5.9594,"ARG_OF_PERICENTER":76.6261,"MEAN_ANOMALY":283.5053,"EPHEMERIS_TYPE":0,"CLASSIFICATION_TYPE":"U","NORAD_CAT_ID":47269,"ELEMENT_SET_NO":999,"REV_AT_EPOCH":25459,"BSTAR":0.0012676999999999999,"MEAN_MOTION_DOT":4.69e-06,"MEAN_MOTION_DDOT":0.0},{"OBJECT_NAME":"ONEWEB-0124","OBJECT_ID":"2020-100N","EPOCH":"2026-04-01T04:43:49.808064","MEAN_MOTION":13.12445412,"ECCENTRICITY":0.0001726,"INCLINATION":87.9006,"RA_OF_ASC_NODE":5.9655,"ARG_OF_PERICENTER":82.6612,"MEAN_ANOMALY":277.4713,"EPHEMERIS_TYPE":0,"CLASSIFICATION_TYPE":"U","NORAD_CAT_ID":47270,"ELEMENT_SET_NO":999,"REV_AT_EPOCH":25447,"BSTAR":0.00052015,"MEAN_MOTION_DOT":2e-06,"MEAN_MOTION_DDOT":0.0},{"OBJECT_NAME":"ONEWEB-0125","OBJECT_ID":"2020-100P","EPOCH":"2026-04-01T04:12:06.903360","MEAN_MOTION":13.12442873,"ECCENTRICITY":0.0001518,"INCLINATION":87.902,"RA_OF_ASC_NODE":5.9441,"ARG_OF_PERICENTER":85.0573,"MEAN_ANOMALY":275.0729,"EPHEMERIS_TYPE":0,"CLASSIFICATION_TYPE":"U","NORAD_CAT_ID":47271,"ELEMENT_SET_NO":999,"REV_AT_EPOCH":25453,"BSTAR":-0.0010763,"MEAN_MOTION_DOT":-3.74e-06,"MEAN_MOTION_DDOT":0.0},{"OBJECT_NAME":"ONEWEB-0126","OBJECT_ID":"2020-100Q","EPOCH":"2026-04-01T04:41:35.441376","MEAN_MOTION":13.12445736,"ECCENTRICITY":0.0001822,"INCLINATION":87.9013,"RA_OF_ASC_NODE":5.961,"ARG_OF_PERICENTER":74.1733,"MEAN_ANOMALY":285.9596,"EPHEMERIS_TYPE":0,"CLASSIFICATION_TYPE":"U","NORAD_CAT_ID":47272,"ELEMENT_SET_NO":999,"REV_AT_EPOCH":25460,"BSTAR":0.00065149,"MEAN_MOTION_DOT":2.47e-06,"MEAN_MOTION_DDOT":0.0},{"OBJECT_NAME":"ONEWEB-0127","OBJECT_ID":"2020-100R","EPOCH":"2026-04-01T03:52:36.693984","MEAN_MOTION":13.12442914,"ECCENTRICITY":0.0001885,"INCLINATION":87.9007,"RA_OF_ASC_NODE":5.9705,"ARG_OF_PERICENTER":74.504,"MEAN_ANOMALY":285.6296,"EPHEMERIS_TYPE":0,"CLASSIFICATION_TYPE":"U","NORAD_CAT_ID":47273,"ELEMENT_SET_NO":999,"REV_AT_EPOCH":25462,"BSTAR":-0.00061163,"MEAN_MOTION_DOT":-2.07e-06,"MEAN_MOTION_DDOT":0.0},{"OBJECT_NAME":"ONEWEB-0128","OBJECT_ID":"2020-100S","EPOCH":"2026-04-01T04:24:18.177408","MEAN_MOTION":13.12443554,"ECCENTRICITY":0.0002069,"INCLINATION":87.9007,"RA_OF_ASC_NODE":5.9798,"ARG_OF_PERICENTER":85.1088,"MEAN_ANOMALY":275.0277,"EPHEMERIS_TYPE":0,"CLASSIFICATION_TYPE":"U","NORAD_CAT_ID":47274,"ELEMENT_SET_NO":999,"REV_AT_EPOCH":25464,"BSTAR":-0.0015043,"MEAN_MOTION_DOT":-5.28e-06,"MEAN_MOTION_DDOT":0.0},{"OBJECT_NAME":"ONEWEB-0129","OBJECT_ID":"2020-100T","EPOCH":"2026-04-01T03:55:02.352288","MEAN_MOTION":13.12443208,"ECCENTRICITY":0.0002437,"INCLINATION":87.9021,"RA_OF_ASC_NODE":5.9492,"ARG_OF_PERICENTER":53.3749,"MEAN_ANOMALY":306.7603,"EPHEMERIS_TYPE":0,"CLASSIFICATION_TYPE":"U","NORAD_CAT_ID":47275,"ELEMENT_SET_NO":999,"REV_AT_EPOCH":25457,"BSTAR":-0.00074871,"MEAN_MOTION_DOT":-2.57e-06,"MEAN_MOTION_DDOT":0.0},{"OBJECT_NAME":"ONEWEB-0130","OBJECT_ID":"2020-100U","EPOCH":"2026-04-01T04:34:04.121472","MEAN_MOTION":13.12446011,"ECCENTRICITY":0.0001876,"INCLINATION":87.9019,"RA_OF_ASC_NODE":5.9388,"ARG_OF_PERICENTER":77.0332,"MEAN_ANOMALY":283.1006,"EPHEMERIS_TYPE":0,"CLASSIFICATION_TYPE":"U","NORAD_CAT_ID":47276,"ELEMENT_SET_NO":999,"REV_AT_EPOCH":25454,"BSTAR":-2.3293000000000002e-05,"MEAN_MOTION_DOT":4e-08,"MEAN_MOTION_DDOT":0.0},{"OBJECT_NAME":"ONEWEB-0131","OBJECT_ID":"2020-100V","EPOCH":"2026-04-01T04:29:11.182272","MEAN_MOTION":13.12445675,"ECCENTRICITY":0.0001834,"INCLINATION":87.9009,"RA_OF_ASC_NODE":5.9661,"ARG_OF_PERICENTER":78.2667,"MEAN_ANOMALY":281.8667,"EPHEMERIS_TYPE":0,"CLASSIFICATION_TYPE":"U","NORAD_CAT_ID":47277,"ELEMENT_SET_NO":999,"REV_AT_EPOCH":25458,"BSTAR":-0.00030285,"MEAN_MOTION_DOT":-9.6e-07,"MEAN_MOTION_DDOT":0.0}]